STARLINK-35876          
1 67180U 25303T   26173.42249174  .00014408  00000+0  53191-3 0  9995
2 67180  42.9979  79.1512 0001693 275.8665  84.1993 15.27588925 28755
STARLINK-35766          
1 67181U 25303U   26173.01988882  .00011309  00000+0  41965-3 0  9990
2 67181  43.0037  81.2864 0001452 250.1786 109.8909 15.27595177 28692
STARLINK-35782          
1 67182U 25303V   26173.46731973  .00016282  00000+0  59974-3 0  9991
2 67182  43.0042  78.6251 0001250 268.7337  91.3372 15.27588827 28763
STARLINK-35719          
1 67183U 25303W   26173.14681290  .00021646  00000+0  79352-3 0  9995
2 67183  43.0021  80.5206 0001293 259.2995 100.7711 15.27591950 28713
STARLINK-35910          
1 67184U 25303X   26173.72501090  .00013777  00000+0  50914-3 0  9998
2 67184  43.0029  77.1225 0001750 285.7128  74.3531 15.27585364 28803
STARLINK-35859          
1 67185U 25303Y   26173.14167225  .00016721  00000+0  61552-3 0  9995
2 67185  43.0041  80.4798 0001399 262.2985  97.7707 15.27593303 28716
STARLINK-35857          
1 67186U 25303Z   26173.15709029  .00019192  00000+0  70477-3 0  9992
2 67186  43.0018  80.5957 0001736 260.0383 100.0272 15.27595925 28719
STARLINK-35880          
1 67187U 25303AA  26173.01861021  .00021681  00000+0  79484-3 0  9992
2 67187  43.0013  81.2781 0000937 269.7521  90.3223 15.27589635 28695
STARLINK-35675          
1 67188U 25303AB  26173.78925920  .00011937  00000+0  44241-3 0  9992
2 67188  43.0038  77.6060 0001102 256.6444 103.4285 15.27593949 28806
STARLINK-35889          
1 67189U 25303AC  26173.78281827  .00024104  00000+0  88121-3 0  9999
2 67189  43.0020  77.5557 0001492 260.2731  99.7952 15.27631051 28805
STARLINK-35888          
1 67190U 25303AD  26173.77255211  .00021005  00000+0  77064-3 0  9999
2 67190  43.0013  77.4816 0001591 261.7836  98.2835 15.27580114 28805
STARLINK-35716          
1 67191U 25303AE  26173.46104100  .00012548  00000+0  46460-3 0  9994
2 67191  43.0021  79.4455 0001929 281.8513  78.2123 15.27588943 28756
STARLINK-36182          
1 67192U 25304A   26173.56343901  .00002110  00000+0  18457-3 0  9990
2 67192  70.0000 270.0403 0003315 269.7018  90.3761 14.98335078 29561
STARLINK-36279          
1 67193U 25304B   26173.69262453 -.00001654  00000+0 -13086-3 0  9994
2 67193  70.0006 269.6836 0003500 269.6250  90.4508 14.98322753 29617
STARLINK-36284          
1 67194U 25304C   26173.44644208 -.00002307  00000+0 -18567-3 0  9995
2 67194  70.0012 270.4359 0003209 263.8120  96.2673 14.98326455 29578
STARLINK-36291          
1 67195U 25304D   26173.53007125  .00000922  00000+0  85047-4 0  9994
2 67195  70.0007 270.3199 0003325 266.1037  93.9742 14.98331680 29584
STARLINK-36239          
1 67196U 25304E   26173.52573272  .00001750  00000+0  15443-3 0  9997
2 67196  70.0006 270.3103 0003398 267.3291  92.7480 14.98333320 29583
STARLINK-36283          
1 67197U 25304F   26173.67592187  .00003297  00000+0  28395-3 0  9998
2 67197  70.0007 269.6245 0003474 268.6159  91.4602 14.98336821 29610
STARLINK-36267          
1 67198U 25304G   26173.70514187 -.00000985  00000+0 -74717-4 0  9990
2 67198  70.0011 269.7281 0003088 267.1785  92.9020 14.98339356 29589
STARLINK-36268          
1 67199U 25304H   26173.51336081 -.00004357  00000+0 -35764-3 0  9990
2 67199  70.0029 270.2621 0002529 274.8132  85.2738 14.98328453 29570
STARLINK-36270          
1 67200U 25304J   26173.68861094  .00001725  00000+0  15228-3 0  9995
2 67200  70.0008 269.6759 0003282 269.5781  90.5002 14.98333351 29613
STARLINK-36262          
1 67201U 25304K   26173.52157639  .00003167  00000+0  27318-3 0  9997
2 67201  70.0001 270.2919 0003591 268.2115  91.8633 14.98320942 29585
STARLINK-36263          
1 67202U 25304L   26173.44228164  .00004645  00000+0  39679-3 0  9996
2 67202  70.0006 270.4161 0003275 271.5229  88.5555 14.98330145 29575
STARLINK-36224          
1 67203U 25304M   26173.70098131  .00006585  00000+0  55885-3 0  9997
2 67203  70.0005 269.7058 0003329 270.4906  89.5872 14.98349372 29611
STARLINK-36185          
1 67204U 25304N   26173.55075106  .00002313  00000+0  20159-3 0  9999
2 67204  70.0005 269.9891 0003456 268.6613  91.4151 14.98334305 29593
STARLINK-36197          
1 67205U 25304P   26173.53823242  .00002667  00000+0  23123-3 0  9996
2 67205  70.0005 269.9469 0003347 269.1083  90.9692 14.98326580 29568
STARLINK-36056          
1 67206U 25304Q   26173.52172316  .00001969  00000+0  17274-3 0  9999
2 67206  70.0005 270.2884 0003361 269.1285  90.9489 14.98335159 29550
STARLINK-36225          
1 67207U 25304R   26173.43826907  .00000731  00000+0  69043-4 0  9990
2 67207  70.0011 270.3978 0003202 266.8923  93.1870 14.98329917 29576
STARLINK-36265          
1 67208U 25304S   26173.51738318  .00002577  00000+0  22366-3 0  9994
2 67208  70.0006 270.2789 0003231 270.9340  89.1449 14.98336850 29583
STARLINK-36226          
1 67209U 25304T   26173.66342654  .00001503  00000+0  13370-3 0  9998
2 67209  70.0009 269.9861 0003424 268.0523  92.0244 14.98332951 29605
