OBJECT_NAME,OBJECT_ID,EPOCH,MEAN_MOTION,ECCENTRICITY,INCLINATION,RA_OF_ASC_NODE,ARG_OF_PERICENTER,MEAN_ANOMALY,EPHEMERIS_TYPE,CLASSIFICATION_TYPE,NORAD_CAT_ID,ELEMENT_SET_NO,REV_AT_EPOCH,BSTAR,MEAN_MOTION_DOT,MEAN_MOTION_DDOT
STARLINK-35876,2025-303T,2026-06-22T10:08:23.286336,15.27588925,.00016936,42.9979,79.1512,275.8665,84.1993,0,U,67180,999,2875,.53191049E-3,.14408E-3,0
STARLINK-35766,2025-303U,2026-06-22T00:28:38.394048,15.27595177,.00014528,43.0037,81.2864,250.1786,109.8909,0,U,67181,999,2869,.41965004E-3,.11309E-3,0
STARLINK-35782,2025-303V,2026-06-22T11:12:56.424672,15.27588827,.000125,43.0042,78.6251,268.7337,91.3372,0,U,67182,999,2876,.59974487E-3,.16282E-3,0
STARLINK-35719,2025-303W,2026-06-22T03:31:24.634560,15.27591950,.00012938,43.0021,80.5206,259.2995,100.7711,0,U,67183,999,2871,.79351753E-3,.21646E-3,0
STARLINK-35910,2025-303X,2026-06-22T17:24:00.941760,15.27585364,.00017508,43.0029,77.1225,285.7128,74.3531,0,U,67184,999,2880,.50913505E-3,.13777E-3,0
STARLINK-35859,2025-303Y,2026-06-22T03:24:00.482400,15.27593303,.00013996,43.0041,80.4798,262.2985,97.7707,0,U,67185,999,2871,.6155155E-3,.16721E-3,0
STARLINK-35857,2025-303Z,2026-06-22T03:46:12.601056,15.27595925,.00017363,43.0018,80.5957,260.0383,100.0272,0,U,67186,999,2871,.70476872E-3,.19192E-3,0
STARLINK-35880,2025-303AA,2026-06-22T00:26:47.922144,15.27589635,.00009371,43.0013,81.2781,269.7521,90.3223,0,U,67187,999,2869,.79484367E-3,.21681E-3,0
STARLINK-35675,2025-303AB,2026-06-22T18:56:31.994880,15.27593949,.00011028,43.0038,77.6060,256.6444,103.4285,0,U,67188,999,2880,.44241234E-3,.11937E-3,0
STARLINK-35889,2025-303AC,2026-06-22T18:47:15.498528,15.27631051,.00014925,43.0020,77.5557,260.2731,99.7952,0,U,67189,999,2880,.88120758E-3,.24104E-3,0
STARLINK-35888,2025-303AD,2026-06-22T18:32:28.502304,15.27580114,.00015915,43.0013,77.4816,261.7836,98.2835,0,U,67190,999,2880,.77064382E-3,.21005E-3,0
STARLINK-35716,2025-303AE,2026-06-22T11:03:53.942400,15.27588943,.00019294,43.0021,79.4455,281.8513,78.2123,0,U,67191,999,2875,.46460285E-3,.12548E-3,0
STARLINK-36182,2025-304A,2026-06-22T13:31:21.130464,14.98335078,.00033158,70.0000,270.0403,269.7018,90.3761,0,U,67192,999,2956,.18457259E-3,.211E-4,0
STARLINK-36279,2025-304B,2026-06-22T16:37:22.759392,14.98322753,.00035007,70.0006,269.6836,269.6250,90.4508,0,U,67193,999,2961,-.13086475E-3,-.1654E-4,0
STARLINK-36284,2025-304C,2026-06-22T10:42:52.595712,14.98326455,.00032094,70.0012,270.4359,263.8120,96.2673,0,U,67194,999,2957,-.18566793E-3,-.2307E-4,0
STARLINK-36291,2025-304D,2026-06-22T12:43:18.156000,14.98331680,.00033254,70.0007,270.3199,266.1037,93.9742,0,U,67195,999,2958,.85047032E-4,.922E-5,0
STARLINK-36239,2025-304E,2026-06-22T12:37:03.307008,14.98333320,.00033983,70.0006,270.3103,267.3291,92.7480,0,U,67196,999,2958,.15443068E-3,.175E-4,0
STARLINK-36283,2025-304F,2026-06-22T16:13:19.649568,14.98336821,.00034743,70.0007,269.6245,268.6159,91.4602,0,U,67197,999,2961,.28394763E-3,.3297E-4,0
STARLINK-36267,2025-304G,2026-06-22T16:55:24.257568,14.98339356,.0003088,70.0011,269.7281,267.1785,92.9020,0,U,67198,999,2958,-.74717248E-4,-.985E-5,0
STARLINK-36268,2025-304H,2026-06-22T12:19:14.373984,14.98328453,.00025293,70.0029,270.2621,274.8132,85.2738,0,U,67199,999,2957,-.35764034E-3,-.4357E-4,0
STARLINK-36270,2025-304J,2026-06-22T16:31:35.985216,14.98333351,.00032826,70.0008,269.6759,269.5781,90.5002,0,U,67200,999,2961,.15227966E-3,.1725E-4,0
STARLINK-36262,2025-304K,2026-06-22T12:31:04.200096,14.98320942,.00035915,70.0001,270.2919,268.2115,91.8633,0,U,67201,999,2958,.27318182E-3,.3167E-4,0
STARLINK-36263,2025-304L,2026-06-22T10:36:53.133696,14.98330145,.00032755,70.0006,270.4161,271.5229,88.5555,0,U,67202,999,2957,.39678945E-3,.4645E-4,0
STARLINK-36224,2025-304M,2026-06-22T16:49:24.785184,14.98349372,.00033292,70.0005,269.7058,270.4906,89.5872,0,U,67203,999,2961,.55884822E-3,.6585E-4,0
STARLINK-36185,2025-304N,2026-06-22T13:13:04.891584,14.98334305,.00034566,70.0005,269.9891,268.6613,91.4151,0,U,67204,999,2959,.20158519E-3,.2313E-4,0
STARLINK-36197,2025-304P,2026-06-22T12:55:03.281088,14.98326580,.00033474,70.0005,269.9469,269.1083,90.9692,0,U,67205,999,2956,.23123253E-3,.2667E-4,0
STARLINK-36056,2025-304Q,2026-06-22T12:31:16.881024,14.98335159,.00033619,70.0005,270.2884,269.1285,90.9489,0,U,67206,999,2955,.17273983E-3,.1969E-4,0
STARLINK-36225,2025-304R,2026-06-22T10:31:06.447648,14.98329917,.0003202,70.0011,270.3978,266.8923,93.1870,0,U,67207,999,2957,.69043431E-4,.731E-5,0
STARLINK-36265,2025-304S,2026-06-22T12:25:01.906752,14.98336850,.00032316,70.0006,270.2789,270.9340,89.1449,0,U,67208,999,2958,.22365678E-3,.2577E-4,0
STARLINK-36226,2025-304T,2026-06-22T15:55:20.053056,14.98332951,.00034245,70.0009,269.9861,268.0523,92.0244,0,U,67209,999,2960,.13370459E-3,.1503E-4,0
